[
    {
        "Altitude(m)": 714804.7716758582,
        "Argument of Periapsis(deg)": 0.010251109067964361,
        "Eccentricity": 0.0,
        "Inclination(deg)": 45.0,
        "Latitude(deg)": -37.70125168222407,
        "Longitude(deg)": 129.5508147553844,
        "Mean Anomaly(deg)": 239.47079498273274,
        "RAAN(deg)": -0.009676747312383542,
        "Satellite Name": "Constellation 1 14",
        "Satellite Number": 14,
        "Semi-Major Axis(m)": 7083131.272910544,
        "Time(s)": 171
    },
    {
        "Altitude(m)": 714816.064952541,
        "Argument of Periapsis(deg)": 0.010311057074209765,
        "Eccentricity": 0.0,
        "Inclination(deg)": 45.0,
        "Latitude(deg)": -37.72870466595624,
        "Longitude(deg)": 129.6148600397506,
        "Mean Anomaly(deg)": 239.53149612298265,
        "RAAN(deg)": -0.009733336477953035,
        "Satellite Name": "Constellation 1 14",
        "Satellite Number": 14,
        "Semi-Major Axis(m)": 7083131.272910544,
        "Time(s)": 172
    },
    {
        "Altitude(m)": 714827.343058279,
        "Argument of Periapsis(deg)": 0.010371005080455171,
        "Eccentricity": 0.0,
        "Inclination(deg)": 45.0,
        "Latitude(deg)": -37.75611805868084,
        "Longitude(deg)": 129.67895548035182,
        "Mean Anomaly(deg)": 239.59219726323255,
        "RAAN(deg)": -0.009789925643522528,
        "Satellite Name": "Constellation 1 14",
        "Satellite Number": 14,
        "Semi-Major Axis(m)": 7083131.272910544,
        "Time(s)": 173
    },
    {
        "Altitude(m)": 714838.605952181,
        "Argument of Periapsis(deg)": 0.010430953086700577,
        "Eccentricity": 0.0,
        "Inclination(deg)": 45.0,
        "Latitude(deg)": -37.78349179320288,
        "Longitude(deg)": 129.74310109145554,
        "Mean Anomaly(deg)": 239.65289840348248,
        "RAAN(deg)": -0.009846514809092023,
        "Satellite Name": "Constellation 1 14",
        "Satellite Number": 14,
        "Semi-Major Axis(m)": 7083131.272910544,
        "Time(s)": 174
    },
    {
        "Altitude(m)": 714849.8535934167,
        "Argument of Periapsis(deg)": 0.010490901092945983,
        "Eccentricity": 0.0,
        "Inclination(deg)": 45.0,
        "Latitude(deg)": -37.81082580229069,
        "Longitude(deg)": 129.80729688700373,
        "Mean Anomaly(deg)": 239.71359954373236,
        "RAAN(deg)": -0.009903103974661516,
        "Satellite Name": "Constellation 1 14",
        "Satellite Number": 14,
        "Semi-Major Axis(m)": 7083131.272910544,
        "Time(s)": 175
    },
    {
        "Altitude(m)": 714861.0859411985,
        "Argument of Periapsis(deg)": 0.010550849099191389,
        "Eccentricity": 0.0,
        "Inclination(deg)": 45.0,
        "Latitude(deg)": -37.83812001867634,
        "Longitude(deg)": 129.8715428806118,
        "Mean Anomaly(deg)": 239.77430068398226,
        "RAAN(deg)": -0.009959693140231011,
        "Satellite Name": "Constellation 1 14",
        "Satellite Number": 14,
        "Semi-Major Axis(m)": 7083131.272910544,
        "Time(s)": 176
    },
    {
        "Altitude(m)": 714872.302954801,
        "Argument of Periapsis(deg)": 0.010610797105436795,
        "Eccentricity": 0.0,
        "Inclination(deg)": 45.0,
        "Latitude(deg)": -37.8653743750559,
        "Longitude(deg)": 129.9358390855665,
        "Mean Anomaly(deg)": 239.83500182423214,
        "RAAN(deg)": -0.010016282305800508,
        "Satellite Name": "Constellation 1 14",
        "Satellite Number": 14,
        "Semi-Major Axis(m)": 7083131.272910544,
        "Time(s)": 177
    },
    {
        "Altitude(m)": 714883.504593542,
        "Argument of Periapsis(deg)": 0.0106707451116822,
        "Eccentricity": 0.0,
        "Inclination(deg)": 45.0,
        "Latitude(deg)": -37.892588804089705,
        "Longitude(deg)": 130.00018534672833,
        "Mean Anomaly(deg)": 239.89570296448207,
        "RAAN(deg)": -0.010072871471370001,
        "Satellite Name": "Constellation 1 14",
        "Satellite Number": 14,
        "Semi-Major Axis(m)": 7083131.272910544,
        "Time(s)": 178
    },
    {
        "Altitude(m)": 714894.6908167913,
        "Argument of Periapsis(deg)": 0.010730693117927606,
        "Eccentricity": 0.0,
        "Inclination(deg)": 45.0,
        "Latitude(deg)": -37.919763238403334,
        "Longitude(deg)": 130.0645820129166,
        "Mean Anomaly(deg)": 239.95640410473197,
        "RAAN(deg)": -0.010129460636939494,
        "Satellite Name": "Constellation 1 14",
        "Satellite Number": 14,
        "Semi-Major Axis(m)": 7083131.272910544,
        "Time(s)": 179
    },
    {
        "Altitude(m)": 714905.8615839776,
        "Argument of Periapsis(deg)": 0.01079064112417301,
        "Eccentricity": 0.0,
        "Inclination(deg)": 45.0,
        "Latitude(deg)": -37.94689761058729,
        "Longitude(deg)": 130.12902892832804,
        "Mean Anomaly(deg)": 240.01710524498188,
        "RAAN(deg)": -0.01018604980250899,
        "Satellite Name": "Constellation 1 14",
        "Satellite Number": 14,
        "Semi-Major Axis(m)": 7083131.272910544,
        "Time(s)": 180
    },
    {
        "Altitude(m)": 714917.0168545804,
        "Argument of Periapsis(deg)": 0.010850589130418416,
        "Eccentricity": 0.0,
        "Inclination(deg)": 45.0,
        "Latitude(deg)": -37.97399185319771,
        "Longitude(deg)": 130.19352610492186,
        "Mean Anomaly(deg)": 240.07780638523172,
        "RAAN(deg)": -0.010242638968078484,
        "Satellite Name": "Constellation 1 14",
        "Satellite Number": 14,
        "Semi-Major Axis(m)": 7083131.272910544,
        "Time(s)": 181
    },
    {
        "Altitude(m)": 714928.1565881242,
        "Argument of Periapsis(deg)": 0.01091053713666382,
        "Eccentricity": 0.0,
        "Inclination(deg)": 45.0,
        "Latitude(deg)": -38.001045898756836,
        "Longitude(deg)": 130.25807355432187,
        "Mean Anomaly(deg)": 240.13850752548169,
        "RAAN(deg)": -0.010299228133647979,
        "Satellite Name": "Constellation 1 14",
        "Satellite Number": 14,
        "Semi-Major Axis(m)": 7083131.272910544,
        "Time(s)": 182
    },
    {
        "Altitude(m)": 714939.2807441987,
        "Argument of Periapsis(deg)": 0.010970485142909228,
        "Eccentricity": 0.0,
        "Inclination(deg)": 45.0,
        "Latitude(deg)": -38.02805967975337,
        "Longitude(deg)": 130.322671287815,
        "Mean Anomaly(deg)": 240.19920866573153,
        "RAAN(deg)": -0.010355817299217472,
        "Satellite Name": "Constellation 1 14",
        "Satellite Number": 14,
        "Semi-Major Axis(m)": 7083131.272910544,
        "Time(s)": 183
    },
    {
        "Altitude(m)": 714950.3892824376,
        "Argument of Periapsis(deg)": 0.011030433149154634,
        "Eccentricity": 0.0,
        "Inclination(deg)": 45.0,
        "Latitude(deg)": -38.05503312864285,
        "Longitude(deg)": 130.38731931634982,
        "Mean Anomaly(deg)": 240.25990980598144,
        "RAAN(deg)": -0.010412406464786968,
        "Satellite Name": "Constellation 1 14",
        "Satellite Number": 14,
        "Semi-Major Axis(m)": 7083131.272910544,
        "Time(s)": 184
    },
    {
        "Altitude(m)": 714961.4821625333,
        "Argument of Periapsis(deg)": 0.01109038115540004,
        "Eccentricity": 0.0,
        "Inclination(deg)": 45.0,
        "Latitude(deg)": -38.081966177847924,
        "Longitude(deg)": 130.45201748243844,
        "Mean Anomaly(deg)": 240.32061094623134,
        "RAAN(deg)": -0.010468995630356462,
        "Satellite Name": "Constellation 1 14",
        "Satellite Number": 14,
        "Semi-Major Axis(m)": 7083131.272910544,
        "Time(s)": 185
    },
    {
        "Altitude(m)": 714972.5593442227,
        "Argument of Periapsis(deg)": 0.011150329161645444,
        "Eccentricity": 0.0,
        "Inclination(deg)": 45.0,
        "Latitude(deg)": -38.108858759759485,
        "Longitude(deg)": 130.51676613254222,
        "Mean Anomaly(deg)": 240.38131208648127,
        "RAAN(deg)": -0.010525584795925956,
        "Satellite Name": "Constellation 1 14",
        "Satellite Number": 14,
        "Semi-Major Axis(m)": 7083131.272910544,
        "Time(s)": 186
    },
    {
        "Altitude(m)": 714983.6207873045,
        "Argument of Periapsis(deg)": 0.01121027716789085,
        "Eccentricity": 0.0,
        "Inclination(deg)": 45.0,
        "Latitude(deg)": -38.1357108067359,
        "Longitude(deg)": 130.58156510848917,
        "Mean Anomaly(deg)": 240.44201322673115,
        "RAAN(deg)": -0.01058217396149545,
        "Satellite Name": "Constellation 1 14",
        "Satellite Number": 14,
        "Semi-Major Axis(m)": 7083131.272910544,
        "Time(s)": 187
    },
    {
        "Altitude(m)": 714994.6664516333,
        "Argument of Periapsis(deg)": 0.011270225174136258,
        "Eccentricity": 0.0,
        "Inclination(deg)": 45.0,
        "Latitude(deg)": -38.16252225110439,
        "Longitude(deg)": 130.6464144198607,
        "Mean Anomaly(deg)": 240.50271436698105,
        "RAAN(deg)": -0.010638763127064944,
        "Satellite Name": "Constellation 1 14",
        "Satellite Number": 14,
        "Semi-Major Axis(m)": 7083131.272910544,
        "Time(s)": 188
    },
    {
        "Altitude(m)": 715005.6962971075,
        "Argument of Periapsis(deg)": 0.011330173180381662,
        "Eccentricity": 0.0,
        "Inclination(deg)": 45.0,
        "Latitude(deg)": -38.18929302516089,
        "Longitude(deg)": 130.71131407589186,
        "Mean Anomaly(deg)": 240.56341550723093,
        "RAAN(deg)": -0.01069535229263444,
        "Satellite Name": "Constellation 1 14",
        "Satellite Number": 14,
        "Semi-Major Axis(m)": 7083131.272910544,
        "Time(s)": 189
    }
]